     3.02           N: GNSS NAV DATA    G: GPS              RINEX VERSION / TYPE
GR10 V3.11          Instituto Geografico20190222 125942 UTC PGM / RUN BY / DATE
GPSA   9.3132D-09  0.0000D+00 -5.9605D-08  0.0000D+00       IONOSPHERIC CORR
GPSB   9.0112D+04  0.0000D+00 -1.9661D+05  0.0000D+00       IONOSPHERIC CORR
GPUT -4.6566128731D-09-1.687538997D-14  61440 2042          TIME SYSTEM CORR
    18    18  1929     7                                    LEAP SECONDS
                                                            END OF HEADER
G32 2019 02 22 04 00 00-2.148072235286D-04 1.909938873723D-11 0.000000000000D+00
     6.800000000000D+01 3.500000000000D+01 4.325537318849D-09-1.363101012137D+00
     1.737847924232D-06 2.604412147775D-03 1.264177262783D-05 5.153760641098D+03
     4.464000000000D+05 9.499490261078D-08 8.539485398929D-01-1.378357410431D-07
     9.569775372928D-01 1.375625000000D+02-2.610736131228D+00-7.860327414187D-09
     2.089372745047D-10 1.000000000000D+00 2.041000000000D+03 0.000000000000D+00
     2.000000000000D+00 0.000000000000D+00 4.656612873077D-10 6.800000000000D+01
     4.392000000000D+05                   
G25 2019 02 22 14 00 00-7.240362465382D-04-5.343281372916D-12 0.000000000000D+00
     3.500000000000D+01-6.431250000000D+01 4.455899891830D-09-6.746439871615D-01
    -3.382563591003D-06 8.244324824773D-03 7.580965757370D-06 5.153748661041D+03
     4.824000000000D+05-1.862645149231D-09 2.959348788298D+00 1.769512891769D-07
     9.715236009319D-01 2.371562500000D+02 8.598314659918D-01-8.222485356662D-09
    -6.003821511836D-10 1.000000000000D+00 2.041000000000D+03 0.000000000000D+00
     2.000000000000D+00 0.000000000000D+00 5.587935447693D-09 3.500000000000D+01
     4.789500000000D+05                   
G10 2019 02 22 13 59 44 1.115729101002D-04-7.844391802792D-12 0.000000000000D+00
     2.100000000000D+01-8.818750000000D+01 4.703767359362D-09-1.072013001804D+00
    -4.589557647705D-06 4.342885222286D-03 7.506459951401D-06 5.153662126541D+03
     4.823840000000D+05 3.725290298462D-08-1.880130495096D-01 2.793967723846D-08
     9.628234559531D-01 2.329687500000D+02-2.743786915475D+00-8.242486189777D-09
    -3.482287908412D-10 1.000000000000D+00 2.041000000000D+03 0.000000000000D+00
     2.000000000000D+00 0.000000000000D+00 1.862645149231D-09 2.100000000000D+01
     4.806000000000D+05                   
G32 2019 02 22 14 00 00-2.141203731298D-04 1.909938873723D-11 0.000000000000D+00
     1.130000000000D+02 2.762500000000D+01 4.405183493574D-09-2.395910258342D+00
     1.428648829460D-06 2.606550580822D-03 1.355260610580D-05 5.153766708374D+03
     4.824000000000D+05 2.421438694000D-08 8.536619937400D-01-5.029141902924D-08
     9.569829822739D-01 1.149375000000D+02-2.610492978151D+00-7.919972755798D-09
     1.971510692762D-10 1.000000000000D+00 2.041000000000D+03 0.000000000000D+00
     2.000000000000D+00 0.000000000000D+00 4.656612873077D-10 1.130000000000D+02
     4.818000000000D+05                   
